[
    {
        "Altitude(m)": 557914.1994433457,
        "Argument of Periapsis(deg)": 0.006622991110713501,
        "Eccentricity": 0.0,
        "Inclination(deg)": 53.0,
        "Latitude(deg)": 44.45004894470245,
        "Longitude(deg)": 96.54916441893715,
        "Mean Anomaly(deg)": 61.0006928675776,
        "RAAN(deg)": 149.99014336852804,
        "Satellite Name": "Starlink Shell 1 663",
        "Satellite Number": 663,
        "Semi-Major Axis(m)": 6931778.249405717,
        "Time(s)": 190
    },
    {
        "Altitude(m)": 557990.090102459,
        "Argument of Periapsis(deg)": 0.0069715695902247375,
        "Eccentricity": 0.0,
        "Inclination(deg)": 53.0,
        "Latitude(deg)": 44.78763219222718,
        "Longitude(deg)": 97.24873881713911,
        "Mean Anomaly(deg)": 61.62752407113431,
        "RAAN(deg)": 149.98962459845055,
        "Satellite Name": "Starlink Shell 1 663",
        "Satellite Number": 663,
        "Semi-Major Axis(m)": 6931778.249405717,
        "Time(s)": 200
    },
    {
        "Altitude(m)": 558065.0788431473,
        "Argument of Periapsis(deg)": 0.007320148069735974,
        "Eccentricity": 0.0,
        "Inclination(deg)": 53.0,
        "Latitude(deg)": 45.12033462425849,
        "Longitude(deg)": 97.95692893226412,
        "Mean Anomaly(deg)": 62.25435527469101,
        "RAAN(deg)": 149.98910582837308,
        "Satellite Name": "Starlink Shell 1 663",
        "Satellite Number": 663,
        "Semi-Major Axis(m)": 6931778.249405717,
        "Time(s)": 210
    },
    {
        "Altitude(m)": 558139.1187991293,
        "Argument of Periapsis(deg)": 0.007668726549247212,
        "Eccentricity": 0.0,
        "Inclination(deg)": 53.0,
        "Latitude(deg)": 45.44804344691856,
        "Longitude(deg)": 98.67380692667541,
        "Mean Anomaly(deg)": 62.88118647824773,
        "RAAN(deg)": 149.98858705829562,
        "Satellite Name": "Starlink Shell 1 663",
        "Satellite Number": 663,
        "Semi-Major Axis(m)": 6931778.249405717,
        "Time(s)": 220
    },
    {
        "Altitude(m)": 558212.1637931247,
        "Argument of Periapsis(deg)": 0.00801730502875845,
        "Eccentricity": 0.0,
        "Inclination(deg)": 53.0,
        "Latitude(deg)": 45.77064431461189,
        "Longitude(deg)": 99.39943866833283,
        "Mean Anomaly(deg)": 63.50801768180446,
        "RAAN(deg)": 149.98806828821813,
        "Satellite Name": "Starlink Shell 1 663",
        "Satellite Number": 663,
        "Semi-Major Axis(m)": 6931778.249405717,
        "Time(s)": 230
    },
    {
        "Altitude(m)": 558284.168359878,
        "Argument of Periapsis(deg)": 0.008365883508269684,
        "Eccentricity": 0.0,
        "Inclination(deg)": 53.0,
        "Latitude(deg)": 46.08802140046206,
        "Longitude(deg)": 100.13388373658574,
        "Mean Anomaly(deg)": 64.13484888536115,
        "RAAN(deg)": 149.98754951814067,
        "Satellite Name": "Starlink Shell 1 663",
        "Satellite Number": 663,
        "Semi-Major Axis(m)": 6931778.249405717,
        "Time(s)": 240
    },
    {
        "Altitude(m)": 558355.0877688081,
        "Argument of Periapsis(deg)": 0.008714461987780921,
        "Eccentricity": 0.0,
        "Inclination(deg)": 53.0,
        "Latitude(deg)": 46.40005747561153,
        "Longitude(deg)": 100.87719390076754,
        "Mean Anomaly(deg)": 64.76168008891787,
        "RAAN(deg)": 149.9870307480632,
        "Satellite Name": "Starlink Shell 1 663",
        "Satellite Number": 663,
        "Semi-Major Axis(m)": 6931778.249405717,
        "Time(s)": 250
    },
    {
        "Altitude(m)": 558424.8780462503,
        "Argument of Periapsis(deg)": 0.009063040467292158,
        "Eccentricity": 0.0,
        "Inclination(deg)": 53.0,
        "Latitude(deg)": 46.70663399778178,
        "Longitude(deg)": 101.62941309878804,
        "Mean Anomaly(deg)": 65.38851129247456,
        "RAAN(deg)": 149.9865119779857,
        "Satellite Name": "Starlink Shell 1 663",
        "Satellite Number": 663,
        "Semi-Major Axis(m)": 6931778.249405717,
        "Time(s)": 260
    },
    {
        "Altitude(m)": 558493.4959973306,
        "Argument of Periapsis(deg)": 0.009411618946803396,
        "Eccentricity": 0.0,
        "Inclination(deg)": 53.0,
        "Latitude(deg)": 47.007631209473715,
        "Longitude(deg)": 102.39057740454405,
        "Mean Anomaly(deg)": 66.01534249603131,
        "RAAN(deg)": 149.98599320790825,
        "Satellite Name": "Starlink Shell 1 663",
        "Satellite Number": 663,
        "Semi-Major Axis(m)": 6931778.249405717,
        "Time(s)": 270
    },
    {
        "Altitude(m)": 558560.8992273945,
        "Argument of Periapsis(deg)": 0.009760197426314633,
        "Eccentricity": 0.0,
        "Inclination(deg)": 53.0,
        "Latitude(deg)": 47.30292824616301,
        "Longitude(deg)": 103.16071347323138,
        "Mean Anomaly(deg)": 66.64217369958804,
        "RAAN(deg)": 149.9854744378308,
        "Satellite Name": "Starlink Shell 1 663",
        "Satellite Number": 663,
        "Semi-Major Axis(m)": 6931778.249405717,
        "Time(s)": 280
    },
    {
        "Altitude(m)": 558627.0461630559,
        "Argument of Periapsis(deg)": 0.01010877590582587,
        "Eccentricity": 0.0,
        "Inclination(deg)": 53.0,
        "Latitude(deg)": 47.5924032548148,
        "Longitude(deg)": 103.93983849255041,
        "Mean Anomaly(deg)": 67.26900490314472,
        "RAAN(deg)": 149.9849556677533,
        "Satellite Name": "Starlink Shell 1 663",
        "Satellite Number": 663,
        "Semi-Major Axis(m)": 6931778.249405717,
        "Time(s)": 290
    },
    {
        "Altitude(m)": 558691.8960727926,
        "Argument of Periapsis(deg)": 0.010457354385337106,
        "Eccentricity": 0.0,
        "Inclination(deg)": 53.0,
        "Latitude(deg)": 47.87593352300513,
        "Longitude(deg)": 104.72796012945119,
        "Mean Anomaly(deg)": 67.89583610670145,
        "RAAN(deg)": 149.9844368976758,
        "Satellite Name": "Starlink Shell 1 663",
        "Satellite Number": 663,
        "Semi-Major Axis(m)": 6931778.249405717,
        "Time(s)": 300
    },
    {
        "Altitude(m)": 558755.4090871114,
        "Argument of Periapsis(deg)": 0.010805932864848343,
        "Eccentricity": 0.0,
        "Inclination(deg)": 53.0,
        "Latitude(deg)": 48.15339561889478,
        "Longitude(deg)": 105.52507496235997,
        "Mean Anomaly(deg)": 68.52266731025814,
        "RAAN(deg)": 149.98391812759837,
        "Satellite Name": "Starlink Shell 1 663",
        "Satellite Number": 663,
        "Semi-Major Axis(m)": 6931778.249405717,
        "Time(s)": 310
    },
    {
        "Altitude(m)": 558817.5462182766,
        "Argument of Periapsis(deg)": 0.01115451134435958,
        "Eccentricity": 0.0,
        "Inclination(deg)": 53.0,
        "Latitude(deg)": 48.42466554224802,
        "Longitude(deg)": 106.33116842775486,
        "Mean Anomaly(deg)": 69.14949851381489,
        "RAAN(deg)": 149.98339935752088,
        "Satellite Name": "Starlink Shell 1 663",
        "Satellite Number": 663,
        "Semi-Major Axis(m)": 6931778.249405717,
        "Time(s)": 320
    },
    {
        "Altitude(m)": 558878.2693795908,
        "Argument of Periapsis(deg)": 0.011503089823870818,
        "Eccentricity": 0.0,
        "Inclination(deg)": 53.0,
        "Latitude(deg)": 48.68961888663382,
        "Longitude(deg)": 107.14621477162304,
        "Mean Anomaly(deg)": 69.77632971737158,
        "RAAN(deg)": 149.98288058744342,
        "Satellite Name": "Starlink Shell 1 663",
        "Satellite Number": 663,
        "Semi-Major Axis(m)": 6931778.249405717,
        "Time(s)": 330
    },
    {
        "Altitude(m)": 558937.5414041814,
        "Argument of Periapsis(deg)": 0.011851668303382053,
        "Eccentricity": 0.0,
        "Inclination(deg)": 53.0,
        "Latitude(deg)": 48.94813101288119,
        "Longitude(deg)": 107.97017549663063,
        "Mean Anomaly(deg)": 70.4031609209283,
        "RAAN(deg)": 149.98236181736593,
        "Satellite Name": "Starlink Shell 1 663",
        "Satellite Number": 663,
        "Semi-Major Axis(m)": 6931778.249405717,
        "Time(s)": 340
    },
    {
        "Altitude(m)": 558995.3260633561,
        "Argument of Periapsis(deg)": 0.012200246782893292,
        "Eccentricity": 0.0,
        "Inclination(deg)": 53.0,
        "Latitude(deg)": 49.2000772337868,
        "Longitude(deg)": 108.80299933474274,
        "Mean Anomaly(deg)": 71.02999212448503,
        "RAAN(deg)": 149.98184304728846,
        "Satellite Name": "Starlink Shell 1 663",
        "Satellite Number": 663,
        "Semi-Major Axis(m)": 6931778.249405717,
        "Time(s)": 350
    },
    {
        "Altitude(m)": 559051.5880844701,
        "Argument of Periapsis(deg)": 0.012548825262404526,
        "Eccentricity": 0.0,
        "Inclination(deg)": 53.0,
        "Latitude(deg)": 49.44533300999504,
        "Longitude(deg)": 109.64462223667671,
        "Mean Anomaly(deg)": 71.65682332804172,
        "RAAN(deg)": 149.98132427721097,
        "Satellite Name": "Starlink Shell 1 663",
        "Satellite Number": 663,
        "Semi-Major Axis(m)": 6931778.249405717,
        "Time(s)": 360
    },
    {
        "Altitude(m)": 559106.2931682863,
        "Argument of Periapsis(deg)": 0.012897403741915765,
        "Eccentricity": 0.0,
        "Inclination(deg)": 53.0,
        "Latitude(deg)": 49.68377415688281,
        "Longitude(deg)": 110.49496586981846,
        "Mean Anomaly(deg)": 72.28365453159847,
        "RAAN(deg)": 149.98080550713354,
        "Satellite Name": "Starlink Shell 1 663",
        "Satellite Number": 663,
        "Semi-Major Axis(m)": 6931778.249405717,
        "Time(s)": 370
    }
]